Vendor,Company,Street Address,City,State,Country,Zip,1099 Tracking,Phone,Email,Attachments,Open Balance
Bob's Burger Joint,,4100 S Ash Grove Ave,Sioux Falls,SD,,57103,,,,,0
Books by Bessie,Books by Bessie,4101 S Ash Grove Ave,Sioux Falls,SD,,57103,,(650) 555-7745,Books@Intuit.com,,0
Brosnahan Insurance Agency,Brosnahan Insurance Agency,4200 S Ash Grove Ave,Sioux Falls,SD,,57103,,(650) 555-9912,,,241.23
Cal Telephone,Cal Telephone,4201 S Ash Grove Ave,Sioux Falls,SD,,57103,,(650) 555-1616,,,0
Chin's Gas and Oil,Chin's Gas and Oil,4204 S Ash Grove Ave,Sioux Falls,SD,,57103,,,,,0
Cigna Health Care,Cigna Health Care,4205 S Ash Grove Ave,Sioux Falls,SD,,57103,,(520) 555-9874,,,0
Computers by Jenni,Computers by Jenni,4208 S Ash Grove Ave,Sioux Falls,SD,,57103,,(650) 555-8721,Msfixit@Intuit.com,,0
Diego's Road Warrior Bodyshop,Diego's Road Warrior Bodyshop,4209 S Ash Grove Ave,Sioux Falls,SD,,57103,,,,,755
EDD,EDD,4213 S Ash Grove Ave,Sioux Falls,SD,,57103,,,,,0
Ellis Equipment Rental,Ellis Equipment Rental,4301 S Mountain Ash Dr,Sioux Falls,SD,USA,57103,,(650) 555-3333,Rental@intuit.com,,0
Fidelity,Fidelity,4304 S Ash Grove Ave,Sioux Falls,SD,,57103,,,,,0
Hall Properties,Hall Properties,4304 S Mountain Ash Dr,Sioux Falls,SD,,57103,,(973) 555-3827,,,0
Happy,,4305 S Ash Grove Ave,Sioux Falls,SD,,57103,,,,,0
Hicks Hardware,Hicks Hardware,4305 S Mountain Ash Dr,Sioux Falls,SD,,57103,,(650) 554-1973,,,0
Lee Advertising,Lee Advertising,4308 S Moutain Ash Dr,Siox Falls,SD,,57103,,(650) 554-4622,,,0
Mahoney Mugs,Mahoney Mugs,4308 S Ash Grove Ave,Sioux Falls,SD,,57103,,,,,0
Met Life Dental,Met Life Dental,4309 S Mountain Ash Dr,Sioux Falls,SD,,57103,,,,,0
National Eye Care,National Eye Care,4312 S Ash Grove Ave,Sioux Falls,SD,,57198,,(800) 555-5555,"Nateyecare@intuit.com, pauliejones15@intuit.com",,0
Norton Lumber and Building Materials,Norton Lumber and Building Materials,4813 S Mountain Ash Dr,Sioux Falls,SD,,57103,,(650) 363-6578,Materials@intuit.com,,205
Pam Seitz,"Pam Seitz, CPA",4313 S Ash Grove Ave,Sioux Falls,SD,,57103,,(650) 557-8855,SeitzCPA@noemail.com,,0
PG&E,PG&E,4316 S Ash Grove Ave,Sioux Falls,SD,,57103,,(888) 555-9465,utilities@noemail.com,,86.44
Robertson & Associates,Robertson & Associates,4317 S Ash Grove Ave,Sioux Falls,SD,,57103,,(650) 557-1111,,,315
Squeaky Kleen Car Wash,,4317 S Mounin Ash Dr,Sioux Falls,SD,,57103,,,,,0
Tania's Nursery,Tania's Nursery,4320 S Ash Grove Ave,Sioux Falls,SD,USA,5713,,(886) 554-2265,plantqueen@taniasnursery.com,,0
Tim Philip Masonry,Tim Philip Masonry,4321 S Ash Grove Ave,Sioux Flls,SD,,57103,,(800) 556-1254,tim.philip@timphilipmasonry.com,,0
Tony Rondonuwu,,4325 S Ash Grove Ave,Sioux Falls,SD,,57103,,,tonyrjr@intuit.com,,0
United States Treasury,,4400 S Mountain Ash Dr,Sioux Falls,SD,,57103,,(888) 555-6454,taxesaregreat@intuit.com,,0
